{"type":"FeatureCollection", "features": [
{"type":"Feature","geometry":{"type":"Polygon","coordinates":[[[54.561411599865494,29.62649729951079],[54.542521899665985,29.628445199586338],[54.49613259953992,29.639835400183642],[54.47640960012302,29.641224299661758],[54.463073100243435,29.639005700053076],[54.44612989987502,29.63261170016989],[54.399460700151224,29.61733469983659],[54.36751449949463,29.610390699771017],[54.34056820026228,29.606774399918663],[54.31695519952291,29.604555999959473],[54.29528890006276,29.601507899869716],[54.26417599952282,29.599839500092912],[54.24861949979015,29.596223300065276],[54.2427863998725,29.596223300065276],[54.21945339945489,29.6267859000493],[54.19417380028074,29.662895700076547],[54.16722750014907,29.71539399953349],[54.120558199701236,29.772061500238124],[54.107501700143416,29.786510699809014],[54.103058499750034,29.79289649967376],[54.09222529965791,29.822066100170446],[54.08916860025073,29.85373479972128],[54.09222529965791,29.874282499937465],[54.09972519945842,29.892340999937232],[54.10361519988163,29.909010499734848],[54.10028189959007,29.924011499930828],[54.0980585002996,29.93845329987994],[54.047222599443444,29.990954100351473],[54.038612699716396,29.996790699531232],[54.03138949972566,29.999848800082134],[53.99555329954518,30.020119199741316],[53.98722009962796,30.027065399548576],[53.958883800147305,30.046515300041108],[53.95527389987063,30.05012380007338],[53.93999760010922,30.061517800306262],[53.905551400177046,30.10678800026608],[53.89527149987987,30.129847599587094],[53.89054820023932,30.141792699873236],[53.876938499811956,30.171240500248928],[53.86415860023925,30.19374190026855],[53.864438599661696,30.202628800179014],[53.876938499811956,30.221512599926598],[53.88610490002117,30.238465899681557],[53.89332810001184,30.2659579003369],[53.897771500054716,30.278742999789642],[53.907494599496204,30.292349399705074],[53.9172178994865,30.311793799943985],[53.925551100303096,30.33401750010762],[53.92610779953537,30.34901409992085],[53.9158278003128,30.38929410034251],[53.90555129945295,30.41373869968129],[53.89860469944739,30.445682500047383],[53.90110469962224,30.464018799727853],[53.90499470004545,30.47151770038164],[53.90999459967111,30.486804200253687],[53.92805089992913,30.52540919987473],[53.930827500089094,30.54013670004872],[53.92916099968045,30.557075400209612],[53.925550999579,30.56985389953786],[53.91082789978782,30.59180130008997],[53.87943840016209,30.630137999569058],[53.85499199948123,30.647916799620646],[53.84082559982164,30.655416399946944],[53.78554300020937,30.674305500298658],[53.78387639997595,30.67513580027702],[53.73498699985021,30.689025299577963],[53.663871399445554,30.704864100098177],[53.64998159977108,30.707364100273082],[53.611648799752345,30.711524699505333],[53.59220250014533,30.71208429995056],[53.553313099819775,30.715414500278996],[53.52914330002335,30.71791449955458],[53.50636699973728,30.722634600306606],[53.471087499688394,30.731524500355476],[53.45858439975029,30.73736380019926],[53.44441790026593,30.751524499955735],[53.424694800124996,30.777364099773422],[53.39552859996496,30.812085199972046],[53.377472100057446,30.825416099773236],[53.36358240020763,30.833196300269094],[53.28580020011918,30.870138699841164],[53.27746689947787,30.873198500110732],[53.263853699788456,30.88069899975909],[53.25302049969633,30.88819950030677],[53.243020699545696,30.893479699728402],[53.21801759963256,30.901810699903933],[53.14746209969621,30.93458430022531],[53.137182200298355,30.938754399895686],[53.123015699914674,30.946255199917573],[53.08162299980165,30.969867699734607],[53.0524566998169,30.987360799561316],[53.03495690004098,30.9965315003285],[53.01940050013303,31.00153209962673],[52.99356419992796,31.005973100278425],[52.97717440007858,31.01097380030069],[52.969397900292904,31.01459339976566],[52.94884150003526,31.03597719968809],[52.941894900029695,31.059310999602985],[52.93522819962175,31.07403349954643],[52.927451699836126,31.084865499942907],[52.911895299928176,31.121261699867603],[52.89939210016536,31.13626439978225],[52.887725599956525,31.14709669965299],[52.87661579987929,31.154038400152103],[52.855225999680215,31.160980199576613],[52.8393895994505,31.171812600171393],[52.83355639970813,31.179043400332716],[52.831612999840104,31.186535799787407],[52.83355639970813,31.195698400360925],[52.85050279986439,31.21431239989738],[52.8688357999323,31.223763899584355],[52.87800229996623,31.22681509963718],[52.91800509965566,31.232646800209693],[52.92883829974778,31.234596800202212],[52.94578469990404,31.24098799959654],[52.95550790006956,31.250710400264836],[52.97161780032127,31.277088499734532],[52.978007499646424,31.311817200103746],[52.978287599792964,31.32265040019587],[52.968840999612496,31.361821300013048],[52.96273119988501,31.37459549968264],[52.9507845995297,31.389879500338736],[52.93467149949015,31.404874600082792],[52.906895199753706,31.422650499820747],[52.88744869959788,31.428762299640482],[52.86466899987448,31.437095100258716],[52.848559300171644,31.44764880005215],[52.818279699748416,31.479598800344434],[52.805776599810315,31.487101099536176],[52.80049999947545,31.494874299709238],[52.76216380001944,31.495704900061128],[52.69077149980495,31.502936399894963],[52.65632529987272,31.504877299647717],[52.6260490997862,31.50793790031389],[52.55965660027192,31.512379699563553],[52.49659749997471,31.523493300175687],[52.4329850998825,31.542660100383387],[52.39992549986198,31.546822099860094],[52.38103569983775,31.55154379960669],[52.37297919973031,31.55460450009764],[52.34520299981864,31.57182130031282],[52.24742089995465,31.661545499825024],[52.24075080010937,31.66376649972426],[52.20075139985727,31.669327999887344],[52.14630209946239,31.66154540000025],[52.130469099569325,31.65655259962284],[52.072689800294086,31.61710740028633],[52.04630039994356,31.595709999916608],[52.010464099938304,31.550433100007638],[52.00296439978729,31.536267900043583],[51.998797699554245,31.52543400027895],[51.98824120017133,31.502376199601997],[51.93879529956348,31.415987299574283],[51.9365720999225,31.413486599726866],[51.93629540011267,31.40404339988305],[51.9418520996947,31.376535799587543],[51.944351900220056,31.35487829999363],[51.95351859990353,31.31653799962902],[51.956295200063494,31.30098359981332],[51.95462859983007,31.288209699617994],[51.96351840005417,31.243758800028672],[51.96657520018539,31.220423400219772],[51.9685183995046,31.21292179980128],[51.967961800097044,31.194316699955777],[51.956852000019865,31.150977699661155],[51.94101890030208,31.112920200107226],[51.921849299605526,31.077092899617696],[51.902406199786356,31.034586499767215],[51.89851630008724,31.027365299868734],[51.89656969953205,31.000123399775134],[51.89795969978036,30.991810100056114],[51.89490299947391,30.984029399537235],[51.872960000203875,30.944584599499706],[51.84990380032019,30.91958220015846],[51.83712409949766,30.898479299879853],[51.83268080017882,30.882638799640915],[51.83240070003234,30.87597770021074],[51.84268070015423,30.842356499652794],[51.856290499507,30.813194600050792],[51.858513799872014,30.802634700331225],[51.854903799770625,30.795134500157133],[51.84657059985335,30.7690328999484],[51.832680900003595,30.74041350018291],[51.8129577998626,30.715142899625164],[51.79767799993982,30.704303700155663],[51.78517819961428,30.700693700054273],[51.80545459955016,30.684304199679104],[51.83406759973997,30.6659745999479],[51.854904000319436,30.643186899855607],[51.86295729973966,30.63152689994655],[51.86934719961363,30.61596840012163],[51.880460400027516,30.608748700292324],[51.887126899886596,30.60096949984262],[51.88796029982802,30.590690499766822],[51.877960499677386,30.575412100088386],[51.85573750008564,30.554024299981506],[51.84823749956104,30.541245899578655],[51.834347899536,30.521248099720083],[51.83129120012882,30.505410800168363],[51.833514499594514,30.490133199987213],[51.84323440014748,30.46957669990485],[51.84184769951179,30.462628300355846],[51.83740119950579,30.45373990037615],[51.82573459947224,30.43596299969272],[51.79684519984613,30.41095860025922],[51.78156530009858,30.399020500295876],[51.77073219983123,30.38207450033798],[51.761288999987414,30.374855699830732],[51.754065700171964,30.372076499730724],[51.74073259972977,30.371796799782544],[51.72767610017195,30.37540610021142],[51.70322980021518,30.39040299949886],[51.65947869998206,30.415686699581556],[51.646560499967165,30.418745800178613],[51.63961740012297,30.421795699811753],[51.632114099985756,30.42901469996849],[51.62739419978254,30.440402600099958],[51.619337500025665,30.443741399745875],[51.61128119956777,30.4437412999211],[51.6040577999276,30.441241799769273],[51.583781399991665,30.42346509963471],[51.574611499621085,30.422355199532888],[51.56072179977127,30.426515099991946],[51.54877859975261,30.4317939000685],[51.52905549961167,30.435683100095048],[51.5212755994894,30.435683100095048],[51.502665999436374,30.442071900098142],[51.484052800296524,30.45124000002602],[51.46543970008213,30.456798599875526],[51.45738670013617,30.465127500134088],[51.44710679983899,30.467906899883587],[51.43183040025281,30.468186699656542],[51.40710400014956,30.463467199651575],[51.399327399639844,30.463737900084084],[51.37432789971285,30.475965199534357],[51.36654779994109,30.486243499937643],[51.36238119953276,30.49457259984564],[51.35877130015541,30.50541039997006],[51.35710469992199,30.51457890009624],[51.358771199431374,30.525687600302547],[51.36377109995635,30.541245399555578],[51.36154790031543,30.5517947996903],[51.34960129996006,30.562633000012966],[51.329878299643894,30.573471300160406],[51.29682200013525,30.59402909976319],[51.25181939974556,30.616518299579923],[51.237652900261196,30.630687099530064],[51.227929700095615,30.64235609985417],[51.21931969964447,30.649025400202106],[51.20792990014485,30.653745299506],[51.19709689970222,30.651525199828143],[51.17709370031406,30.649305100150286],[51.161817299828556,30.628746699800388],[51.15709400018801,30.613467899923705],[51.15153750025547,30.6092984999259],[51.141537700104834,30.606798700299805],[51.13653750010559,30.59846889981992],[51.14376099957053,30.587639600087527],[51.14292769945382,30.564022500238252],[51.164037299681695,30.546244599508725],[51.16848389951241,30.54013529980432],[51.17904049961942,30.53068690008041],[51.18709709955158,30.50485079952483],[51.201263500110485,30.477634399707824],[51.2204299999446,30.453739299629035],[51.25543299983315,30.415686400107347],[51.29487899956621,30.38457349956741],[51.29682229960952,30.375965199734253],[51.292655799925285,30.370686500381737],[51.28015599959974,30.36901730020827],[51.26820949996852,30.36373859995649],[51.2609897003145,30.35402049984623],[51.24348639947783,30.347072600320303],[51.238486499852115,30.336244799757765],[51.23765329956018,30.325128399556036],[51.24070980021713,30.317621299783184],[51.25181979994386,30.308462899942924],[51.265432999633276,30.30179509966416],[51.26904270026046,30.297355699805735],[51.272099499492356,30.289018599528788],[51.26904280008523,30.27957179969883],[51.262932899633654,30.275682900045865],[51.2490431997839,30.264016499661807],[51.23876329948672,30.256798399726392],[51.23792989954529,30.252070500053605],[51.22515359995873,30.248181800050077],[51.21848710009965,30.241793699719494],[51.21154050009403,30.24040430021836],[51.208207099977756,30.23679530016301],[51.196817299578754,30.23540579993778],[51.19126410015815,30.225959299582087],[51.18987400008507,30.21901190007918],[51.18626429945789,30.215682699796787],[51.18209419978757,30.20790539961456],[51.177927600278565,30.206236300165187],[51.169317799476914,30.212064700225767],[51.16265119979312,30.209015100066893],[51.15515139981733,30.209565499548205],[51.14876140011859,30.20762569966638],[51.14826160009284,30.21408910023183],[51.14237139952053,30.215682699796787],[51.13209510010881,30.209294800015073],[51.13820499966107,30.206236200340413],[51.1309816000209,30.199289100311773],[51.12014839992878,30.200678399988192],[51.10903869967632,30.188182599847153],[51.103482099919006,30.190122399729034],[51.10403539971401,30.197069499757674],[51.10042539961256,30.199568599711142],[51.09570219979673,30.197349199705855],[51.09459229969491,30.190952500057904],[51.08736890005474,30.19402000032278],[51.08597899963121,30.19984829965938],[51.0662557996655,30.20039870004001],[51.06347940005435,30.198458900158187],[51.06125590003978,30.191511800129547],[51.05320280026905,30.189572000247665],[51.05236950015234,30.181794799890156],[51.042922999796644,30.182624900219025],[51.03097650016542,30.17734689963976],[51.02597659964039,30.178186000383675],[51.02347649964082,30.184014299720218],[51.016533499621346,30.179566299645046],[50.999853199865356,30.173458300360323],[50.99625359952404,30.176237200086746],[50.98958699984024,30.176236999537934],[50.980697199616145,30.167070700052818],[50.95597419984949,30.15595539972196],[50.9373610996351,30.14012179998116],[50.92486140003365,30.115122300054168],[50.921808199888574,30.1012287996694],[50.922918199815115,30.08400659992469],[50.919585000247594,30.066234200348106],[50.91597169963427,30.058448700147437],[50.89736199975653,30.024844399649396],[50.888195399897825,30.014848999881508],[50.86680580024756,30.005674600202667],[50.86263929966401,29.998728399496088],[50.8648590998676,29.981227800222825],[50.8604157996495,29.973731499509142],[50.846526099799746,29.965675899623136],[50.836526399473826,29.963177100043197],[50.82346980009123,29.964845999843078],[50.81624650027584,29.967064999650063],[50.79513359953603,29.977619400015328],[50.783743800036405,29.98401509961718],[50.76124409973545,29.99206179981229],[50.754300800241765,29.99262100005916],[50.73429769977906,29.990952200083996],[50.717074799462466,29.994840199515636],[50.68679500028907,29.995958799658922],[50.678185199487416,29.989283199560077],[50.66707209979762,29.97678929968646],[50.66012899995343,29.98011790012106],[50.65457229947208,29.97678929968646],[50.64596239974503,29.978728800094075],[50.63790599946236,29.97151199967908],[50.63040580018759,29.970402499775616],[50.621516199612984,29.95983919971934],[50.615959400206236,29.960118799842803],[50.61262629956411,29.9573404001394],[50.603183099720354,29.943728199596762],[50.614293099447025,29.943448600372676],[50.62484949990454,29.940119999938076],[50.64234900020625,29.93734170005945],[50.648182299773396,29.932894600205714],[50.66040569976326,29.91484459969854],[50.68012879990425,29.89761570000462],[50.69624199976852,29.887612299867783],[50.71374150007023,29.87317099994175],[50.71263169979318,29.866225499807],[50.70624170009444,29.86483649960485],[50.70068499961309,29.866784799878644],[50.69540869965181,29.86150809971906],[50.68985200006978,29.8623378996744],[50.68735190007021,29.859280099497028],[50.67429549943779,29.860669099699237],[50.675408799876266,29.85623129973476],[50.66957229962196,29.854842199707775],[50.67096229987027,29.850395299503532],[50.66762899957871,29.8415016996438],[50.66123899987997,29.83900319953807],[50.66012919960292,29.835674900376375],[50.651515799714446,29.83456550029763],[50.64457269987025,29.828729599891176],[50.644849299855366,29.822064000253476],[50.64762950000147,29.817057999627025],[50.665685599710685,29.805675199550876],[50.70374179974431,29.791505500278674],[50.73040809955421,29.787338499672046],[50.74568789947705,29.783451100088257],[50.76541089979327,29.781782499762585],[50.77902409948268,29.782062099886048],[50.80180049959341,29.780114000161007],[50.81541359945811,29.775396799722557],[50.82569349975529,29.77594710027853],[50.83735990013935,29.773448699997573],[50.859026299424215,29.77455810007632],[50.87291600017335,29.77455810007632],[50.927361900231574,29.78011409998578],[50.96180810016375,29.781782700311396],[50.999867499985214,29.782892200214917],[51.02264390009594,29.77677700005853],[51.03153370032004,29.77650650017489],[51.05125669973694,29.770950600090146],[51.090149600223924,29.75094570008406],[51.113759199727326,29.740943499642867],[51.16237190004318,29.717611099972316],[51.17265179944104,29.714283200109662],[51.1895981995973,29.712614699608764],[51.2168211995388,29.71122580013065],[51.234044099855396,29.711225899955366],[51.24876729947135,29.709836899753157],[51.26237699989866,29.70733870002107],[51.2782134999531,29.700664799640833],[51.28654679969509,29.695397799568866],[51.29709989964073,29.68650519975523],[51.299603399977,29.678442499721655],[51.2965466996705,29.658448200024452],[51.27404359993227,29.625945800158604],[51.270433799480315,29.614835299509537],[51.270710299640655,29.605663899969045],[51.27765699947099,29.58733919974435],[51.278490400311796,29.582613800186778],[51.297380099611985,29.530662499874495],[51.304323300180215,29.517884800043532],[51.32099330000085,29.49761379963718],[51.33071290018023,29.490390999844806],[51.364605999966955,29.463438899985306],[51.36877239982647,29.464557000105515],[51.375438999510266,29.471500099949708],[51.38154880013707,29.470940999527556],[51.38516219967585,29.464277499806826],[51.389882199703834,29.461500199974296],[51.397938599986446,29.464277499806826],[51.41238509979257,29.462609299679514],[51.422661699577816,29.473438799960718],[51.42766150027808,29.47510700008803],[51.44210809990892,29.47399790038287],[51.44599809943281,29.466495700116525],[51.45433130024935,29.46566619963545],[51.45738789983176,29.4620502999814],[51.47461089997313,29.46260939950423],[51.485997399860196,29.461220799500325],[51.48322079970018,29.455945799958727],[51.48461089977326,29.450661899826855],[51.49044399969091,29.44872329964062],[51.5023870998848,29.45260970007763],[51.50850039977371,29.452889099652282],[51.51711029950076,29.446225799581043],[51.521000200099195,29.43900320033748],[51.531556800206204,29.43816470034068],[51.53989000012348,29.433998900329016],[51.55155639960822,29.425387999656493],[51.55294649968124,29.421222300368925],[51.5518364997547,29.41427049958395],[51.55572319966598,29.410104800296324],[51.566279600123494,29.405109700352455],[51.57183610005603,29.400384999568132],[51.57461280004077,29.395110400224837],[51.58711589997887,29.39121539957108],[51.59266920012357,29.38260470034669],[51.62072889961905,29.31732860033469],[51.62211549953071,29.312604199923953],[51.632672099637716,29.2923281003616],[51.66295160023623,29.250658999912957],[51.677674799852184,29.22982520017291],[51.708231000260525,29.195938300312378],[51.72017749989175,29.18148790014652],[51.726287399444004,29.17232009969291],[51.75851029991048,29.13955289984648],[51.79545650001751,29.11509770019876],[51.80656980025611,29.10371309967985],[51.810179499983974,29.098160599931816],[51.81545959958089,29.085658500039813],[51.81656959950749,29.076491599807525],[51.81517939960963,29.06816299992255],[51.794903200222564,29.047323899578373],[51.79406999993063,29.04454780034075],[51.83351599966369,29.008990800085428],[51.84268259952239,29.00015809961667],[51.86740549946427,28.979825199773188],[51.876848700207404,28.961763900183882],[51.88796199954669,28.947316900354735],[51.896295199463964,28.92231679968063],[51.90657499993637,28.895929500146337],[51.92351820030473,28.864541499690517],[51.93213139964445,28.85204249976158],[51.943241199721626,28.83926429990754],[51.96046439951249,28.821205700083055],[51.974354100261564,28.779538800275475],[51.981020600120644,28.743983099540458],[51.99268709943016,28.697589599580397],[51.993520500270904,28.688985100282196],[51.99741039997002,28.67592990024474],[52.010743799886484,28.635098699945104],[52.01352369965906,28.630927499504537],[52.01991370025712,28.605647900330382],[52.021023599459625,28.59898119992249],[52.03547010016507,28.54119989965568],[52.037969999615825,28.51731010018102],[52.04380349973178,28.486755300017137],[52.051303199882796,28.44092520013794],[52.05582319968096,28.423068599736155],[52.05907979949319,28.41592150037701],[52.09713930003875,28.324811999574194],[52.10602579975091,28.30647610009197],[52.11269589959613,28.294534599791973],[52.12297219990717,28.262304100054223],[52.123529099688255,28.258701999597633],[52.121305699498464,28.22035869999405],[52.12186239963012,28.211191899586538],[52.12547239973151,28.199530899631384],[52.14130549944929,28.174804799901665],[52.14352869998959,28.17007759990139],[52.15825179978077,28.145640599833882],[52.17075169993109,28.13008200018419],[52.17908480002353,28.1234192999608],[52.19908800031101,28.11147149990984],[52.21742110020364,28.095355399731943],[52.22992069998037,28.079806799644132],[52.23325400027193,28.073414600203705],[52.26520029985403,28.04424520025583],[52.27853689955833,28.037304200328606],[52.294089900028894,28.03035419998639],[52.30159320016611,28.028418699763222],[52.33937259966581,28.022305999722164],[52.363262199490975,28.015077099828318],[52.37603849997686,28.00591269971136],[52.38798520015689,27.993138699691315],[52.389928399476105,27.987305300299397],[52.39326169976766,27.96841019967104],[52.40159489968494,27.948408600176833],[52.42715119956824,27.912295100338667],[52.44159759954965,27.885913300158734],[52.449930900190964,27.87174619992726],[52.45798750012307,27.847021899740923],[52.464097399675325,27.837301599888974],[52.48687699957395,27.809518500378545],[52.50104340013286,27.787298300376335],[52.50660009971489,27.77563490013057],[52.509933400006446,27.743966699703492],[52.51354669972045,27.732573999890235],[52.52771320010413,27.704794999489707],[52.542712899880485,27.663124099497622],[52.548546099622854,27.653685200211896],[52.56326930013813,27.624514800217923],[52.602715200046475,27.580626500312803],[52.62382840026049,27.563406699959273],[52.629104899871265,27.56118439964041],[52.64771800008572,27.55756780031379],[52.66688430027028,27.548409299749437],[52.68799739976026,27.53674099999722],[52.736889899849075,27.51090400011958],[52.75466629961011,27.50285269989223],[52.76801689996,27.49033090035084],[52.775779300174634,27.480903099598436],[52.78883579973245,27.467850600225063],[52.79883559988309,27.46145489972389],[52.8088354998585,27.45368299997051],[52.828282000014326,27.442016300112186],[52.847728299621394,27.425348699682786],[52.880504300233326,27.401737699934927],[52.91773059958757,27.349508500117224],[52.92800699972332,27.341180400255325],[52.943843300128265,27.329785399976288],[52.952176699694974,27.327006500249865],[52.97411960003956,27.31312060003569],[52.99967919953548,27.304792900372092],[53.00912240027861,27.296735099845023],[53.01999680011227,27.289809199535],[53.04967839993827,27.275062099536342],[53.07468130020192,27.270898500165686],[53.08190450019259,27.27034089981271],[53.130517099784356,27.272013600147602],[53.14718349961885,27.26534100018705],[53.15718339959426,27.25979259954886],[53.174686499882114,27.253398900039258],[53.18357289976956,27.251456600042104],[53.229688899523126,27.239784499754933],[53.26996830009705,27.225621799906207],[53.3266373997962,27.198951800285386],[53.3435803996158,27.19339499997932],[53.35358019976644,27.191174099904856],[53.35691689949539,27.186453500029074],[53.362750199961795,27.170898299816713],[53.37441670017063,27.148114799558414],[53.381639900161304,27.137559499871088],[53.40024960003905,27.12061190001924],[53.41052939961213,27.113950000192403],[53.44802879968938,27.106173200033197],[53.484421600176745,27.100617200123736],[53.49358810021073,27.100617200123736],[53.50025460006981,27.103395199628835],[53.5180342994434,27.12588939967611],[53.53025749978383,27.150623300125233],[53.5360906995262,27.15756439987723],[53.54359060022608,27.157285699975148],[53.55081390004153,27.150344499499113],[53.57970339949236,27.125341000286994],[53.63220579985784,27.098396599523483],[53.648872199692335,27.092283199809856],[53.68387509975611,27.082286299972793],[53.69081829942502,27.079787000369834],[53.75776719959663,27.052844599698574],[53.78526669969847,27.04561700022441],[53.79609989979059,27.045895600301776],[53.81165619987377,27.051451200012934],[53.82443609944647,27.05894859969817],[53.85776880019006,27.089235599743176],[53.90693809991342,27.111450699690067],[53.9188845995447,27.115900899506983],[53.93332760008872,27.123677799490906],[53.9822202000023,27.17839719957118],[53.99277680010931,27.18978940026068],[54.0002766000851,27.193952600332295],[54.01194310029388,27.205066299869884],[54.023056299808445,27.21339279983789],[54.0263896001,27.21950730032171],[54.034999400002334,27.230064000253435],[54.034999400002334,27.23506370022966],[54.02416619991027,27.25923519974475],[54.015832999992995,27.27423500024514],[54.01110969945313,27.277283499633825],[53.99638669948666,27.273119900263225],[53.980830199753996,27.290619899688693],[53.9708303996033,27.307014400294406],[53.96638720010924,27.32034249960674],[53.96610719978747,27.340622899727066],[53.9686071001376,27.350066399944467],[53.973330399778206,27.35423060006218],[53.999993599624986,27.36371349957841],[54.00749980007578,27.363952999831156],[54.018889700299496,27.36811719994887],[54.04833249954527,27.380349200155536],[54.09611520025635,27.402565399973298],[54.10944819997451,27.408123999822806],[54.157784199581215,27.421454100126653],[54.23528619969841,27.43645759953864],[54.236676199946714,27.43645759953864],[54.279175499649625,27.44701790035589],[54.30112179943154,27.450903700045785],[54.35223430027281,27.45839670024759],[54.35834769998644,27.458684600214156],[54.37001409947118,27.457020500096064],[54.38668050020499,27.458684600214156],[54.41501669986087,27.456732600129442],[54.42918320024455,27.453125500341628],[54.44501620013756,27.45201909950191],[54.456686099783724,27.453404399893202],[54.4975186994285,27.4614551002727],[54.519741699919564,27.46284940017972],[54.53349320005117,27.4625705995536],[54.628913399633745,27.46785089969933],[54.6411365001494,27.46785089969933],[54.65696959986718,27.46673539951911],[54.68613919946455,27.462291600177252],[54.71947519982069,27.454231900282025],[54.73864159983003,27.45173119953529],[54.78086429954783,27.447566399569723],[54.83225689963626,27.44506579954708],[54.84114660003564,27.443959399606683],[54.887815899584155,27.44173760021016],[54.923371999618155,27.43785169979617],[54.94837160026918,27.43590879995122],[54.967541399715856,27.4353421002578],[55.00059749957501,27.4328415002351],[55.02893029979356,27.432013900021502],[55.0539332000572,27.429792199550434],[55.12949199995586,27.430628700354305],[55.14088190017958,27.435341999533705],[55.16893809951375,27.452567599615065],[55.19005110007828,27.466456400142818],[55.20421759956264,27.47367969995821],[55.22644060005371,27.48146079977613],[55.25672009975284,27.49562909970325],[55.266719899903535,27.504786799870942],[55.276996399864004,27.51146180012205],[55.29338159968114,27.528954800123984],[55.31283260004449,27.55451799960605],[55.33144570025894,27.571737700134804],[55.36366840017661,27.588129900274737],[55.36672509958373,27.5892365996894],[55.37950149989433,27.598404599792502],[55.38811479995809,27.603407100257527],[55.410337799549836,27.6195122997529],[55.43700399953502,27.642572999844106],[55.44450379951081,27.651462800068202],[55.45756029996795,27.68840890035051],[55.471450099642425,27.71868890007272],[55.48756340023078,27.735912500061886],[55.500063000007515,27.742301800088057],[55.516729499666724,27.745631499494152],[55.52895260018238,27.75284870010745],[55.54700900026518,27.76674350001258],[55.56728869981367,27.781466499979047],[55.578678500212675,27.796747899795776],[55.58006519994905,27.80869059979142],[55.575621999555665,27.82063339961178],[55.54506589987142,27.860351400197032],[55.53534269970589,27.874797399980082],[55.523952799482174,27.889801699788677],[55.51922949984157,27.89757840012311],[55.51422960021591,27.902304000229492],[55.50089649977372,27.92285349998906],[55.488396699448174,27.93341210018832],[55.46728369978297,27.955078799846774],[55.45922709985081,27.96174899951677],[55.44117079959278,27.97146199957166],[55.40644799967549,27.987584500224557],[55.38672500025859,27.99869299988211],[55.38672500025859,28.00508470019878],[55.391448299899196,28.025834499662494],[55.395058099451774,28.036197099816377],[55.4006148997579,28.06758089953894],[55.40033819994801,28.085641199981467],[55.395058300000585,28.146199099508863],[55.399224899509534,28.182305599923552],[55.40172489968444,28.19452470025476],[55.401724999509156,28.21147130006051],[55.403114899932746,28.213974599847973],[55.40005829945102,28.244807299517333],[55.40450500000583,28.26786959950249],[55.40589150009271,28.27925239957864],[55.406448200224304,28.296191900136137],[55.408671599514776,28.310087700087365],[55.40478169981566,28.352028799589505],[55.407005000180675,28.362305000075764],[55.406448200224304,28.386199299757948],[55.407838300297385,28.418416799795523],[55.40978159944132,28.433143299923415],[55.41561489990778,28.46731719952919],[55.42672810032161,28.502591399873268],[55.431171299815674,28.509815799559533],[55.44228450022956,28.516202499645715],[55.448117799796705,28.52258919973184],[55.45311759959759,28.541200200029266],[55.45117440027843,28.552316600230995],[55.44756109966505,28.560090799550835],[55.42617150001479,28.586207000252898],[55.378115599655246,28.630369300203085],[55.365335799907314,28.647036600258957],[55.35088920027641,28.660370699847988],[55.28588699958544,28.70425739985916],[55.25866399964394,28.718151000068644],[55.25199749978486,28.723989600239918],[55.24560759991084,28.75926529975385],[55.24366439969236,28.78231460003883],[55.24783100010063,28.82898279971647],[55.24810769991046,28.842598999544236],[55.25033089955144,28.853710100041155],[55.26199760030909,28.899823200380467],[55.26561080019832,28.923714199550716],[55.27033069950221,28.94315370028312],[55.27255399986723,28.961205600158394],[55.27894389974125,28.983989700264488],[55.28061059979939,28.995102499580753],[55.278663900318804,29.00954119956674],[55.27727740023187,29.033435000125223],[55.27505409986685,29.045656999870687],[55.266997499934746,29.07538350014846],[55.26227769955625,29.094546599645923],[55.24922119999843,29.118712900180242],[55.23005139965244,29.15065909993757],[55.21949500009424,29.170932499735102],[55.19977189995325,29.20343920015904],[55.18727209962776,29.22065770009283],[55.164215799919305,29.253715999693668],[55.1256031003029,29.291219999803218],[55.08143380002991,29.327886900160365],[55.04754430022933,29.34899329970108],[55.01309810029716,29.367881999854433],[54.9839319999619,29.39483180014753],[54.96892880002417,29.41955510028771],[54.963095600281804,29.427615999878526],[54.95392899952378,29.442890500096553],[54.913926399483785,29.484828600359663],[54.90670650000504,29.493998999854],[54.879203599566495,29.5315024001157],[54.83531429961528,29.579837399676308],[54.816144500168605,29.593725100333188],[54.798088199910524,29.602057900052102],[54.77308849943478,29.608722299994213],[54.73808560027027,29.61288869985367],[54.71919599989553,29.61344780027582],[54.694749600113994,29.61344790010054],[54.66864010026046,29.612058999723104],[54.655026899671725,29.610670200069706],[54.63863709982235,29.610110999822837],[54.63141389983167,29.611499900200272],[54.615304200128776,29.611499900200272],[54.59280120021526,29.614836699753937],[54.58474799972049,29.616784599829487],[54.561411599865494,29.62649729951079]]]},"properties":{"shapeName":"Fars","shapeISO":"IR-14","shapeID":"17685810B30738859401369","shapeGroup":"IRN","shapeType":"ADM1"}}
]}